{"type": "FeatureCollection", "features": [ {"type": "Feature", "properties": {"norad_id": 30396, "name": "FENGYUN 1C DEB", "group": "fengyun-1c-debris", "lat": 23.03025119472084, "lon": -171.7643201721168, "alt_km": 899.7573790935348, "timestamp": "2025-12-27T16:33:30.498645+00:00", "meta": {"OBJECT_NAME": "FENGYUN 1C DEB", "OBJECT_ID": "1999-025ADK", "EPOCH": "2025-12-27T07:14:39.903072", "MEAN_MOTION": 13.8717332, "ECCENTRICITY": 0.013526, "INCLINATION": 98.2241, "RA_OF_ASC_NODE": 4.3693, "ARG_OF_PERICENTER": 89.7296, "MEAN_ANOMALY": 288.4951, "EPHEMERIS_TYPE": 0, "CLASSIFICATION_TYPE": "U", "NORAD_CAT_ID": 30396, "ELEMENT_SET_NO": 999, "REV_AT_EPOCH": 95781, "BSTAR": 0.0001283, "MEAN_MOTION_DOT": 1.27e-06, "MEAN_MOTION_DDOT": 0}, "tle": {"line1": "1 30396U 99025ADK 25361.30185073  .00000127  00000+0  12830-3 0  9996", "line2": "2 30396  98.2241   4.3693 0135260  89.7296 288.4951 13.87173320957814"}}, "geometry": {"type": "Point", "coordinates": [-171.7643201721168, 23.03025119472084]}}, {"type": "Feature", "properties": {"norad_id": 30397, "name": "FENGYUN 1C DEB", "group": "fengyun-1c-debris", "lat": -64.19289918465677, "lon": 166.46809791553287, "alt_km": 952.06152464356, "timestamp": "2025-12-27T16:33:30.498666+00:00", "meta": {"OBJECT_NAME": "FENGYUN 1C DEB", "OBJECT_ID": "1999-025ADL", "EPOCH": "2025-12-27T08:32:53.531232", "MEAN_MOTION": 13.98636732, "ECCENTRICITY": 0.0149411, "INCLINATION": 98.4065, "RA_OF_ASC_NODE": 148.3557, "ARG_OF_PERICENTER": 51.4838, "MEAN_ANOMALY": 5.0196, "EPHEMERIS_TYPE": 0, "CLASSIFICATION_TYPE": "U", "NORAD_CAT_ID": 30397, "ELEMENT_SET_NO": 999, "REV_AT_EPOCH": 95969, "BSTAR": 0.0012678, "MEAN_MOTION_DOT": 1.965e-05, "MEAN_MOTION_DDOT": 0}, "tle": {"line1": "1 30397U 99025ADL 25361.35617513  .00001965  00000+0  12678-2 0  9991", "line2": "2 30397  98.4065 148.3557 0149411  51.4838   5.0196 13.98636732959695"}}, "geometry": {"type": "Point", "coordinates": [166.46809791553287, -64.19289918465677]}}, {"type": "Feature", "properties": {"norad_id": 30398, "name": "FENGYUN 1C DEB", "group": "fengyun-1c-debris", "lat": 5.97814094334602, "lon": -102.44665451596077, "alt_km": 1010.1912575834103, "timestamp": "2025-12-27T16:33:30.498678+00:00", "meta": {"OBJECT_NAME": "FENGYUN 1C DEB", "OBJECT_ID": "1999-025ADM", "EPOCH": "2025-12-27T12:09:56.754432", "MEAN_MOTION": 13.78713142, "ECCENTRICITY": 0.0172375, "INCLINATION": 99.7144, "RA_OF_ASC_NODE": 258.3937, "ARG_OF_PERICENTER": 257.4418, "MEAN_ANOMALY": 278.8981, "EPHEMERIS_TYPE": 0, "CLASSIFICATION_TYPE": "U", "NORAD_CAT_ID": 30398, "ELEMENT_SET_NO": 999, "REV_AT_EPOCH": 94960, "BSTAR": 0.00046746, "MEAN_MOTION_DOT": 4.82e-06, "MEAN_MOTION_DDOT": 0}, "tle": {"line1": "1 30398U 99025ADM 25361.50690688  .00000482  00000+0  46746-3 0  9990", "line2": "2 30398  99.7144 258.3937 0172375 257.4418 278.8981 13.78713142949600"}}, "geometry": {"type": "Point", "coordinates": [-102.44665451596077, 5.97814094334602]}}, {"type": "Feature", "properties": {"norad_id": 30400, "name": "FENGYUN 1C DEB", "group": "fengyun-1c-debris", "lat": 74.8315281795995, "lon": -107.01284822144322, "alt_km": 981.2949323528364, "timestamp": "2025-12-27T16:33:30.498689+00:00", "meta": {"OBJECT_NAME": "FENGYUN 1C DEB", "OBJECT_ID": "1999-025ADP", "EPOCH": "2025-12-26T18:11:23.273664", "MEAN_MOTION": 14.10218375, "ECCENTRICITY": 0.02252674, "INCLINATION": 99.1563, "RA_OF_ASC_NODE": 288.5445, "ARG_OF_PERICENTER": 296.893, "MEAN_ANOMALY": 90.3082, "EPHEMERIS_TYPE": 0, "CLASSIFICATION_TYPE": "U", "NORAD_CAT_ID": 30400, "ELEMENT_SET_NO": 999, "REV_AT_EPOCH": 95712, "BSTAR": 0.0040941818, "MEAN_MOTION_DOT": 9.147e-05, "MEAN_MOTION_DDOT": 0}, "tle": {"line1": "1 30400U 99025ADP 25360.75790826  .00009147  00000+0  40942-2 0  9993", "line2": "2 30400  99.1563 288.5445 0225267 296.8930  90.3082 14.10218375957127"}}, "geometry": {"type": "Point", "coordinates": [-107.01284822144322, 74.8315281795995]}}, {"type": "Feature", "properties": {"norad_id": 30401, "name": "FENGYUN 1C DEB", "group": "fengyun-1c-debris", "lat": -20.580429069269663, "lon": -117.66358878372918, "alt_km": 823.1653619389726, "timestamp": "2025-12-27T16:33:30.498699+00:00", "meta": {"OBJECT_NAME": "FENGYUN 1C DEB", "OBJECT_ID": "1999-025ADQ", "EPOCH": "2025-12-27T04:53:04.992000", "MEAN_MOTION": 14.2800294, "ECCENTRICITY": 0.0108146, "INCLINATION": 98.9464, "RA_OF_ASC_NODE": 238.4473, "ARG_OF_PERICENTER": 85.8877, "MEAN_ANOMALY": 275.4656, "EPHEMERIS_TYPE": 0, "CLASSIFICATION_TYPE": "U", "NORAD_CAT_ID": 30401, "ELEMENT_SET_NO": 999, "REV_AT_EPOCH": 98510, "BSTAR": 0.00016589, "MEAN_MOTION_DOT": 3.92e-06, "MEAN_MOTION_DDOT": 0}, "tle": {"line1": "1 30401U 99025ADQ 25361.20353000  .00000392  00000+0  16589-3 0  9998", "line2": "2 30401  98.9464 238.4473 0108146  85.8877 275.4656 14.28002940985102"}}, "geometry": {"type": "Point", "coordinates": [-117.66358878372918, -20.580429069269663]}}, {"type": "Feature", "properties": {"norad_id": 30403, "name": "FENGYUN 1C DEB", "group": "fengyun-1c-debris", "lat": 12.696915681032877, "lon": -97.43246147871513, "alt_km": 873.9952605329372, "timestamp": "2025-12-27T16:33:30.498710+00:00", "meta": {"OBJECT_NAME": "FENGYUN 1C DEB", "OBJECT_ID": "1999-025ADS", "EPOCH": "2025-12-27T10:42:21.610080", "MEAN_MOTION": 14.2164907, "ECCENTRICITY": 0.0074518, "INCLINATION": 99.0585, "RA_OF_ASC_NODE": 80.2575, "ARG_OF_PERICENTER": 339.6562, "MEAN_ANOMALY": 20.165, "EPHEMERIS_TYPE": 0, "CLASSIFICATION_TYPE": "U", "NORAD_CAT_ID": 30403, "ELEMENT_SET_NO": 999, "REV_AT_EPOCH": 97015, "BSTAR": 0.0020305, "MEAN_MOTION_DOT": 4.539e-05, "MEAN_MOTION_DDOT": 0}, "tle": {"line1": "1 30403U 99025ADS 25361.44608345  .00004539  00000+0  20305-2 0  9998", "line2": "2 30403  99.0585  80.2575 0074518 339.6562  20.1650 14.21649070970154"}}, "geometry": {"type": "Point", "coordinates": [-97.43246147871513, 12.696915681032877]}}, {"type": "Feature", "properties": {"norad_id": 30404, "name": "FENGYUN 1C DEB", "group": "fengyun-1c-debris", "lat": -46.371741162210284, "lon": -97.5726069002626, "alt_km": 1297.9463431421027, "timestamp": "2025-12-27T16:33:30.498721+00:00", "meta": {"OBJECT_NAME": "FENGYUN 1C DEB", "OBJECT_ID": "1999-025ADT", "EPOCH": "2025-12-27T04:39:54.273888", "MEAN_MOTION": 13.34362251, "ECCENTRICITY": 0.03759432, "INCLINATION": 99.8314, "RA_OF_ASC_NODE": 92.4311, "ARG_OF_PERICENTER": 101.8832, "MEAN_ANOMALY": 262.47, "EPHEMERIS_TYPE": 0, "CLASSIFICATION_TYPE": "U", "NORAD_CAT_ID": 30404, "ELEMENT_SET_NO": 999, "REV_AT_EPOCH": 58229, "BSTAR": 0.00073299091, "MEAN_MOTION_DOT": 5.06e-06, "MEAN_MOTION_DDOT": 0}, "tle": {"line1": "1 30404U 99025ADT 25361.19437817  .00000506  00000+0  73299-3 0  9996", "line2": "2 30404  99.8314  92.4311 0375943 101.8832 262.4700 13.34362251582298"}}, "geometry": {"type": "Point", "coordinates": [-97.5726069002626, -46.371741162210284]}}, {"type": "Feature", "properties": {"norad_id": 30405, "name": "FENGYUN 1C DEB", "group": "fengyun-1c-debris", "lat": 20.084390580659633, "lon": 92.55711856253178, "alt_km": 795.2260368467114, "timestamp": "2025-12-27T16:33:30.498732+00:00", "meta": {"OBJECT_NAME": "FENGYUN 1C DEB", "OBJECT_ID": "1999-025ADU", "EPOCH": "2025-12-27T04:50:18.432672", "MEAN_MOTION": 14.29035155, "ECCENTRICITY": 0.00507112, "INCLINATION": 98.7926, "RA_OF_ASC_NODE": 95.309, "ARG_OF_PERICENTER": 112.6115, "MEAN_ANOMALY": 277.5827, "EPHEMERIS_TYPE": 0, "CLASSIFICATION_TYPE": "U", "NORAD_CAT_ID": 30405, "ELEMENT_SET_NO": 999, "REV_AT_EPOCH": 97602, "BSTAR": 0.0018748601, "MEAN_MOTION_DOT": 4.77e-05, "MEAN_MOTION_DDOT": 0}, "tle": {"line1": "1 30405U 99025ADU 25361.20160223  .00004770  00000+0  18749-2 0  9998", "line2": "2 30405  98.7926  95.3090 0050711 112.6115 277.5827 14.29035155976029"}}, "geometry": {"type": "Point", "coordinates": [92.55711856253178, 20.084390580659633]}}, {"type": "Feature", "properties": {"norad_id": 30406, "name": "FENGYUN 1C DEB", "group": "fengyun-1c-debris", "lat": -11.810821752972597, "lon": 68.76300005588986, "alt_km": 1171.9121226892084, "timestamp": "2025-12-27T16:33:30.498742+00:00", "meta": {"OBJECT_NAME": "FENGYUN 1C DEB", "OBJECT_ID": "1999-025ADV", "EPOCH": "2025-12-27T11:14:36.587328", "MEAN_MOTION": 13.59273546, "ECCENTRICITY": 0.0282739, "INCLINATION": 98.6204, "RA_OF_ASC_NODE": 250.3856, "ARG_OF_PERICENTER": 321.7531, "MEAN_ANOMALY": 229.5237, "EPHEMERIS_TYPE": 0, "CLASSIFICATION_TYPE": "U", "NORAD_CAT_ID": 30406, "ELEMENT_SET_NO": 999, "REV_AT_EPOCH": 93366, "BSTAR": 0.0023726, "MEAN_MOTION_DOT": 2.237e-05, "MEAN_MOTION_DDOT": 0}, "tle": {"line1": "1 30406U 99025ADV 25361.46847902  .00002237  00000+0  23726-2 0  9990", "line2": "2 30406  98.6204 250.3856 0282739 321.7531 229.5237 13.59273546933668"}}, "geometry": {"type": "Point", "coordinates": [68.76300005588986, -11.810821752972597]}}, {"type": "Feature", "properties": {"norad_id": 30409, "name": "FENGYUN 1C DEB", "group": "fengyun-1c-debris", "lat": 11.76092070981138, "lon": 169.84947007326195, "alt_km": 992.0791412351409, "timestamp": "2025-12-27T16:33:30.498752+00:00", "meta": {"OBJECT_NAME": "FENGYUN 1C DEB", "OBJECT_ID": "1999-025ADY", "EPOCH": "2025-12-27T11:13:07.368096", "MEAN_MOTION": 14.03780309, "ECCENTRICITY": 0.0167205, "INCLINATION": 98.4743, "RA_OF_ASC_NODE": 347.8632, "ARG_OF_PERICENTER": 324.1118, "MEAN_ANOMALY": 160.9396, "EPHEMERIS_TYPE": 0, "CLASSIFICATION_TYPE": "U", "NORAD_CAT_ID": 30409, "ELEMENT_SET_NO": 999, "REV_AT_EPOCH": 96636, "BSTAR": 0.00094152, "MEAN_MOTION_DOT": 1.637e-05, "MEAN_MOTION_DDOT": 0}, "tle": {"line1": "1 30409U 99025ADY 25361.46744639  .00001637  00000+0  94152-3 0  9991", "line2": "2 30409  98.4743 347.8632 0167205 324.1118 160.9396 14.03780309966366"}}, "geometry": {"type": "Point", "coordinates": [169.84947007326195, 11.76092070981138]}}]}